ORBCOMM FM37            
1 33064U 08031E   26025.02779297  .00003129  00000+0  42858-3 0  9990
2 33064  48.4399   8.2259 0005542 254.7308 177.0112 14.80816279946910
ORBCOMM FM40            
1 33065U 08031F   26025.17724822  .00004747  00000+0  59809-3 0  9992
2 33065  48.4420 347.6082 0006472 270.3164 103.0670 14.83393630947101
VESSELSAT 1             
1 37840U 11058C   26025.09657309  .00000447  00000+0  99261-4 0  9996
2 37840  19.9601 191.0566 0013702 107.5089 252.6814 14.11409666737699
ORBCOMM FM109           
1 40086U 14040A   26025.01918820  .00001427  00000+0  33953-3 0  9990
2 40086  47.0041  48.2792 0002689 279.9885  80.0697 14.58638728613441
ORBCOMM FM107           
1 40087U 14040B   26025.03620811  .00001378  00000+0  32873-3 0  9998
2 40087  47.0055  49.0690 0001803 245.8825 114.1872 14.58714977613520
ORBCOMM FM106           
1 40088U 14040C   26024.90913381  .00001886  00000+0  34072-3 0  9998
2 40088  47.0574 213.8268 0016090  16.1456 343.9945 14.70174828616099
ORBCOMM FM111           
1 40089U 14040D   26025.06631639  .00005044  00000+0  56215-3 0  9993
2 40089  47.0010  32.5049 0028239 177.9904 182.1111 14.88042896623252
ORBCOMM FM104           
1 40090U 14040E   26024.44710194  .00001160  00000+0  29226-3 0  9997
2 40090  47.0052  88.1445 0015630 139.3128 220.8928 14.57088799612889
